P/2019 V2 (Groeller),e,11.8047,189.1621,336.3511,7.513901,0.0478526,0.33236144,0.6296,11/05.0/2020,2000,g 10.0,4.0
# From MPC119998
P/2019 W1 (PANSTARRS),e,23.4603,35.4068,18.7138,4.550472,0.1015358,0.26622318,55.5613,11/05.0/2020,2000,g 12.9,4.0
# From MPC119998
P/2019 X1 (Pruyne),e,10.2446,43.7054,36.6043,6.177497,0.0641926,0.30346713,30.4406,11/05.0/2020,2000,g 10.4,4.0
# From MPC119999
C/2019 Y1 (ATLAS),e,73.2548,31.5185,57.9753,86.18450,0.0012319,0.99035125,0.0000,03/15.5937/2020,2000,g 13.7,4.0
# From MPC119999
P/2019 Y2 (Fuls),e,4.9017,81.0813,91.7550,3.529253,0.1486551,0.39615598,41.5189,11/05.0/2020,2000,g 13.2,4.0
# From MPEC 2020-L06
C/2019 Y4 (ATLAS),e,45.3827,120.5721,177.3075,536.4743,0.0000793,0.99952854,0.0000,05/31.0583/2020,2000,g 11.8,6.0
# From MPEC 2020-L06
C/2019 Y4-A (ATLAS),h,05/31.0415/2020,45.8244,120.9284,177.2500,1.001343,0.251056,2000,11.6,6.0
# From MPEC 2020-L06
C/2019 Y4-B (ATLAS),e,45.4590,120.6242,177.3833,1086,0.0000276,0.99976733,0.0000,05/31.0202/2020,2000,g 12.8,6.0
# From MPEC 2020-L06
C/2019 Y4-C (ATLAS),h,05/30.9997/2020,45.6067,120.6541,177.2834,1.002060,0.252106,2000,12.7,6.0
# From MPEC 2020-L06
C/2019 Y4-D (ATLAS),e,45.6481,121.0347,177.4222,67.25267,0.0017871,0.99626030,0.0000,05/31.1168/2020,2000,g 12.5,6.0
# From MPEC 2020-L06
C/2020 A2 (Iwamoto),e,120.7481,286.3788,68.2116,1244,0.0000225,0.99921363,0.0000,01/08.3405/2020,2000,g 13.5,4.0
# From MPEC 2020-L06
C/2020 A3 (ATLAS),h,07/29.6364/2019,146.7768,120.3774,271.1664,1.024967,5.839467,2000,8.0,4.0
# From MPEC 2020-L06
C/2020 B3 (Rankin),e,20.7050,185.8266,325.0785,1543,0.0000163,0.99783318,0.0000,10/19.8053/2019,2000,g 13.0,4.0
# From MPEC 2020-L06
C/2020 F2 (ATLAS),h,07/16.6523/2022,163.5754,250.2510,48.3730,1.002545,8.816959,2000,4.5,4.0
# From MPEC 2020-L06
C/2020 F3 (NEOWISE),e,128.9336,61.0130,37.2703,368.4154,0.0001394,0.99920002,0.0000,07/03.6831/2020,2000,g 12.5,3.2
# From MPEC 2020-L06
C/2020 F5 (MASTER),h,03/23.9836/2021,51.7012,350.6264,311.0214,1.002188,4.326783,2000,6.5,3.2
# From MPEC 2020-L06
C/2020 F6 (PANSTARRS),e,174.5816,207.8813,344.6000,380.1561,0.0001330,0.99076420,0.0000,04/11.6082/2020,2000,g 14.5,2.8
# From MPEC 2020-L06
A/2020 F7,e,93.9512,321.8862,227.9886,778.8385,0.0000453,0.99315435,0.0000,11/14.1220/2021,2000,g 12.0,2.0
# From MPEC 2020-KB7
C/2020 F8 (SWAN),e,110.7929,260.0076,68.2216,273.7072,0.0002177,0.99842762,0.0000,05/27.5669/2020,2000,g 10.0,4.0
# From MPEC 2020-L06
P/2020 G1 (Pimentel),e,18.4768,240.0933,207.6636,3.611538,0.1436037,0.85992156,33.4011,11/05.0/2020,2000,g 17.0,4.0
# From MPEC 2020-L06
C/2020 H2 (Pruyne),e,125.0432,277.6365,26.6974,186.1193,0.0003882,0.99552081,0.0000,04/27.5933/2020,2000,g 18.0,4.0
# From MPEC 2020-HM1
C/2020 H3 (Wierzchos),p,06/05.7162/2020,62.5292,30.4456,2.300288,270.6227,2000,13.5,4.0
# From MPEC 2020-L06
C/2020 H4 (Leonard),e,84.5147,307.7367,117.6124,48.19053,0.0029462,0.98075937,0.0000,08/29.5181/2020,2000,g 15.0,3.2
# From MPEC 2020-L06
C/2020 H5 (Robinson),e,70.2487,210.6005,325.0642,1082,0.0000277,0.99134479,0.0000,11/14.8818/2020,2000,g  5.0,4.0
# From MPEC 2020-L06
C/2020 H6 (ATLAS),h,09/30.9414/2021,79.9638,213.6989,20.3119,1.000882,4.704788,2000,8.0,3.2
# From MPEC 2020-KB7
C/2020 H7 (Lemmon),e,135.9235,323.5194,82.6780,1405,0.0000187,0.99685380,0.0000,06/02.9510/2020,2000,g 11.0,4.0
# From MPEC 2020-KB7
C/2020 H8 (PANSTARRS),p,06/06.7207/2020,99.7116,129.2192,4.678446,68.3225,2000,10.5,4.0
# From MPEC 2020-L06
A/2020 H9,e,137.8703,213.1201,312.8821,524.3664,0.0000821,0.99508149,0.0000,12/21.3380/2019,2000,g 18.0,2.0
# From MPEC 2020-L06
C/2020 J1 (SONEAR),e,142.2960,226.5861,341.7128,490.5666,0.0000907,0.99315062,0.0000,04/19.3282/2021,2000,g  8.5,3.2
# From MPEC 2020-L06
C/2020 K1 (PANSTARRS),h,05/08.1169/2023,89.6522,94.3672,213.9068,1.000806,3.074721,2000,5.5,4.0
# From MPEC 2020-KF5
C/2020 K2 (PANSTARRS),p,12/30.6730/2018,89.7510,34.2348,8.177098,285.5819,2000,6.5,4.0
# From MPEC 2020-KF9
C/2020 K3 (Leonard),p,06/01.0032/2020,129.0152,64.4924,1.583069,28.3546,2000,14.5,4.0
# From MPEC 2020-L06
C/2020 K4 (PANSTARRS),e,125.5621,264.0944,308.7643,23.89306,0.0084391,0.92663964,2.0782,11/05.0/2020,2000,g 16.5,4.0
# From MPEC 2020-L06
C/2020 K5 (PANSTARRS),h,06/05.5948/2021,67.1641,86.1610,249.6011,1.001474,1.535379,2000,11.0,4.0
# From MPEC 2020-L06
C/2020 K6 (Rankin),h,08/26.2434/2021,103.8017,291.5637,41.6773,1.000898,5.993472,2000,8.0,4.0
# From MPEC 2020-L09
C/2020 K7 (PANSTARRS),p,10/05.3027/2021,34.5520,60.8413,5.644571,287.4776,2000,8.0,4.0
# From MPEC 2020-SI8
C/2020 K8 (Catalina-ATLAS),h,09/14.5161/2020,31.4136,181.5193,260.0550,1.000318,0.474611,2000,15.0,3.2
# From MPEC 2020-UR0
P/2020 K9 (Lemmon-PANSTARRS),e,23.2070,166.2392,196.8609,4.201777,0.1144339,0.32183537,348.7000,11/05.0/2020,2000,g 12.5,4.0
# From MPEC 2020-UR0
C/2020 M3 (ATLAS),e,23.4734,71.2502,328.4456,26.81974,0.0070961,0.95271224,0.0736,11/05.0/2020,2000,g 14.5,4.0
# From MPEC 2020-UR0
C/2020 M5 (ATLAS),e,93.2224,352.0979,126.3366,8455,0.0000013,0.99964467,0.0000,08/19.8879/2021,2000,g  9.0,4.0
# From MPEC 2020-UR0
C/2020 N1 (PANSTARRS),h,03/12.2399/2021,29.7038,279.9843,186.7707,1.000398,1.320760,2000,12.5,4.0
# From MPEC 2020-UR0
C/2020 N2 (ATLAS),e,161.0337,257.0717,331.2017,108.3736,0.0008736,0.98344662,0.0000,08/23.6708/2020,2000,g 16.0,3.2
# From MPEC 2020-UR0
C/2020 O2 (Amaral),h,08/28.1705/2021,71.7526,256.7524,10.2305,1.001373,4.864193,2000,8.0,3.2
# From MPEC 2020-UR0
C/2020 P1 (NEOWISE),h,10/20.1796/2020,45.0518,53.5374,8.8972,1.000252,0.342199,2000,14.0,3.2
# From MPEC 2020-UR0
C/2020 P3 (ATLAS),e,61.8881,19.5000,82.2469,6188,0.0000020,0.99889916,0.0000,04/20.9386/2021,2000,g  6.0,4.0
# From MPEC 2020-UR0
C/2020 Q1 (Borisov),e,142.9239,52.3782,9.8807,58.84105,0.0021837,0.97765251,0.0000,08/14.6530/2020,2000,g 14.0,4.0
# From MPEC 2020-UR0
C/2020 R2 (PANSTARRS),e,53.2200,195.0941,211.6772,392.5984,0.0001267,0.98804538,0.0000,02/24.1806/2022,2000,g  9.0,4.0
# From MPEC 2020-UR0
C/2020 R4 (ATLAS),e,164.4630,323.2728,46.7136,97.11054,0.0010299,0.98940801,0.0000,03/01.9402/2021,2000,g 13.5,4.0
# From MPEC 2020-K19
P/2020 M1 (PANSTARRS),e,8.6355,142.9316,67.9582,5.096242,0.0856700,0.47775753,27.3727,11/05.0/2020,2000,g 14.5,4.0
# From MPEC 2020-N01
P/2020 M2 (Lemmon),e,10.9284,8.2097,14.4023,3.826149,0.1316926,0.40490537,18.2674,11/05.0/2020,2000,g 12.0,4.0
# From MPEC 2020-SI8
C/2020 M3 (ATLAS),e,23.4730,71.2481,328.4486,26.78217,0.0071111,0.95264687,0.0738,11/05.0/2020,2000,g 14.5,4.0
# From MPEC 2020-K19
A/2020 M4,e,160.1255,348.6316,104.6346,5580,0.0000024,0.99893323,0.0000,11/23.7279/2020,2000,g 14.5,2.0
# From MPEC 2020-SI8
C/2020 M5 (ATLAS),e,93.2225,352.0980,126.3373,7880,0.0000014,0.99961872,0.0000,08/19.8928/2021,2000,g  9.0,4.0
# From MPEC 2020-SI8
C/2020 N1 (PANSTARRS),h,03/12.2327/2021,29.7037,279.9821,186.7741,1.000430,1.320682,2000,12.5,4.0
# From MPEC 2020-K19
C/2020 N2 (ATLAS),e,161.0352,257.0577,331.1618,126.5019,0.0006927,0.98581631,0.0000,08/23.6139/2020,2000,g 16.0,3.2
# From MPEC 2020-SI8
P/2020 O1 (Lemmon-PANSTARRS),e,5.2247,175.9780,104.7200,2.645666,0.2290349,0.11968423,42.5174,11/05.0/2020,2000,g 15.5,4.0
# From MPEC 2020-K19
C/2020 O2 (Amaral),e,71.8914,256.6300,9.3986,22734,0.0000003,0.99978428,0.0000,08/23.9123/2021,2000,g  8.0,3.2
# From MPEC 2020-SI8
P/2020 O3 (PANSTARRS),e,8.4415,266.8800,81.3803,4.659227,0.0980016,0.10570562,351.6603,11/05.0/2020,2000,g 12.0,4.0
# From MPEC 2020-SI8
C/2020 P1 (NEOWISE),h,10/20.1770/2020,45.0690,53.5465,8.8873,1.000627,0.342054,2000,14.0,3.2
# From MPEC 2020-SI8
C/2020 P3 (ATLAS),e,61.8905,19.5066,82.2658,23024,0.0000003,0.99970411,0.0000,04/21.1855/2021,2000,g  6.0,4.0
# From MPEC 2020-QN1
C/2020 P4-A (SOHO),h,08/08.2179/2020,26.3316,175.2061,177.4771,1.002092,0.090758,2000,5.3,6.0
# From MPEC 2020-QN1
C/2020 P4-B (SOHO),h,08/08.1271/2020,27.3017,171.4988,173.4044,1.000486,0.098304,2000,0.0,6.0
# From MPEC 2020-QN1
C/2020 P4-C (SOHO),h,08/06.8015/2020,37.4581,164.0406,116.7346,1.012861,0.086550,2000,-1.6,6.0
# From MPEC 2020-SI8
C/2020 Q1 (Borisov),e,142.9240,52.3602,9.8045,52.67244,0.0025783,0.97504439,0.0000,08/14.5705/2020,2000,g 14.0,4.0
# From MPEC 2020-SI8
C/2020 R2 (PANSTARRS),e,53.2377,195.0833,211.7313,448.3218,0.0001038,0.98953706,0.0000,02/24.2498/2022,2000,g  9.0,4.0
# From MPEC 2020-SI8
C/2020 R4 (ATLAS),e,164.4629,323.2726,46.7020,98.52623,0.0010078,0.98955872,0.0000,03/01.9301/2021,2000,g 13.5,4.0
# From MPEC 2020-UR0
P/2020 R5 (PANSTARRS),e,11.4543,272.9703,82.3301,4.979023,0.0887131,0.31449267,14.2603,11/05.0/2020,2000,g  9.5,6.0
# From MPEC 2020-UR0
C/2020 R6 (Rankin),e,82.8220,12.1751,272.0012,437.8321,0.0001076,0.99285293,0.0000,09/10.0616/2019,2000,g 11.0,4.0
# From MPEC 2020-UR0
C/2020 R7 (ATLAS),h,09/16.2592/2022,114.8929,268.2897,347.7130,1.000290,2.962419,2000,7.0,3.2
# From MPEC 2020-UR0
P/2020 S1 (PANSTARRS),e,13.7340,129.4591,254.8727,5.980216,0.0673952,0.50715766,355.0859,11/05.0/2020,2000,g 14.0,4.0
# From MPEC 2020-UR0
C/2020 S2 (PANSTARRS),e,22.3961,197.6868,202.2606,10.16963,0.0303911,0.82732545,358.5736,11/05.0/2020,2000,g 17.0,4.0
# From MPEC 2020-UR0
C/2020 S3 (Erasmus),e,19.8620,223.0047,349.8585,209.6250,0.0003247,0.99809820,0.0000,12/12.6695/2020,2000,g 13.5,3.2
# From MPEC 2020-UR0
C/2020 S4 (PANSTARRS),h,02/07.9777/2023,20.5770,117.6930,21.1186,1.002721,3.359392,2000,8.5,3.2
# From MPEC 2020-UR0
P/2020 S5 (PANSTARRS),e,12.3540,315.9982,53.0273,4.047954,0.1210182,0.33824540,10.7201,11/05.0/2020,2000,g 14.5,4.0
# From MPEC 2020-UR0
P/2020 S6 (Leonard),e,15.4601,242.5709,176.6536,3.598814,0.1443660,0.47904165,357.3132,11/05.0/2020,2000,g 16.0,4.0
# From MPEC 2020-UR0
P/2020 S7 (PANSTARRS),e,16.0922,328.0189,40.4035,5.023195,0.0875455,0.41053152,358.8562,11/05.0/2020,2000,g 14.5,4.0
# From MPEC 2020-UR0
C/2020 S8 (Lemmon),e,108.5175,24.0517,160.3286,268.9960,0.0002234,0.99121196,0.0000,04/10.9257/2021,2000,g 12.5,4.0
# From MPEC 2020-UR0
